STARLINK-36524          
1 67452U 26008H   26039.16668981 -.00074107  00000+0 -12688-2 0  9992
2 67452  43.0002  13.4089 0001138 271.3413 331.9924 15.50591905  5055
STARLINK-36518          
1 67453U 26008J   26039.16668981 -.00058112  00000+0 -99215-3 0  9993
2 67453  42.9995  12.9073 0000649 259.9628 181.7511 15.50578761  5078
STARLINK-36517          
1 67454U 26008K   26039.16668981 -.00077497  00000+0 -13276-2 0  9993
2 67454  43.0000  13.6253 0001098 277.1571 238.4543 15.50592564  5076
STARLINK-36516          
1 67455U 26008L   26039.16668981 -.00032061  00000+0 -54374-3 0  9997
2 67455  43.0000  13.4878 0001374 274.5214 297.1074 15.50536365  5056
STARLINK-36493          
1 67456U 26008M   26039.16668981 -.00079627  00000+0 -13646-2 0  9993
2 67456  43.0002  13.4562 0001189 267.8729 316.5931 15.50594034  5054
STARLINK-36529          
1 67457U 26008N   26039.16668981 -.00502270  00000+0 -90242-2 0  9996
2 67457  43.0000  13.1986 0000765 227.1433 101.8188 15.50869333  5056
STARLINK-36528          
1 67458U 26008P   26039.16668981 -.02091202  00000+0 -30643-1 0  9995
2 67458  42.9997  12.9253 0001257 276.1512 163.7134 15.57870150  5079
STARLINK-36546          
1 67459U 26008Q   26039.16668981 -.00583463  00000+0 -10572-1 0  9998
2 67459  43.0002  13.1815 0000705 274.9944  60.7567 15.50922677  5057
STARLINK-36523          
1 67460U 26008R   26039.16668981 -.01741099  00000+0 -31772-1 0  9997
2 67460  43.0003  13.1474 0001341 265.5971  83.7824 15.51894893  5076
STARLINK-36522          
1 67461U 26008S   26039.16668981 -.00044975  00000+0 -76573-3 0  9996
2 67461  43.0002  13.4495 0001437 271.7927 314.9052 15.50559707  5059
STARLINK-36504          
1 67462U 26008T   26039.16668981 -.02078837  00000+0 -32970-1 0  9994
2 67462  42.9999  12.9813 0001292 275.2371 141.5001 15.55752498  5079
STARLINK-36505          
1 67463U 26008U   26039.16668981 -.01967072  00000+0 -33599-1 0  9990
2 67463  43.0000  13.0630 0001360 254.8263 129.2288 15.53574016  5057
STARLINK-36421          
1 67464U 26008V   26039.16668981  .00067210  00000+0  11465-2 0  9992
2 67464  43.0002  13.4418 0001152 259.2931 330.7896 15.50460623  5057
STARLINK-36437          
1 67465U 26008W   26039.16668981 -.02063338  00000+0 -34886-1 0  9995
2 67465  43.0003  13.0361 0001281 264.5373 129.9331 15.54005103  5058
STARLINK-36520          
1 67466U 26008X   26039.16668981 -.00023816  00000+0 -40153-3 0  9997
2 67466  43.0002  13.2152 0001659 251.8117  69.6859 15.50567210  5055
STARLINK-36425          
1 67467U 26008Y   26039.16668981 -.00077595  00000+0 -13294-2 0  9996
2 67467  42.9998  13.6026 0001014 260.5404 263.4921 15.50592040  5056
STARLINK-36414          
1 67468U 26008Z   26039.16668981 -.00075149  00000+0 -12868-2 0  9996
2 67468  43.0000  13.0245 0000870 264.3541 132.5995 15.50593967  5059
STARLINK-36441          
1 67469U 26008AA  26039.16668981  .00203457  00000+0  33891-2 0  9999
2 67469  43.0002  13.1688 0001376 273.6457  63.7789 15.50540229  5054
STARLINK-36454          
1 67470U 26008AB  26039.16668981 -.00069984  00000+0 -11972-2 0  9994
2 67470  43.0000  13.0811 0001115 269.0101 103.9548 15.50592808  5057
STARLINK-36334          
1 67471U 26008AC  26039.16668981 -.02060319  00000+0 -39479-1 0  9991
2 67471  42.9998  12.9210 0001124 272.5171 165.9408 15.50564962  5052
STARLINK-36269          
1 67472U 26008AD  26039.16668981 -.00105276  00000+0 -18110-2 0  9992
2 67472  42.9997  13.0006 0000894 244.7266 160.5930 15.50608897  5075
STARLINK-36408          
1 67473U 26008AE  26039.16668981  .00057381  00000+0  97949-3 0  9992
2 67473  43.0000  13.1138 0000814 279.2773  79.8740 15.50500706  5079
ALSAT-3A                
1 67474U 26009A   26039.18759039  .00007737  00000+0  32701-3 0  9996
2 67474  97.4676 113.8490 0012396 171.6536 188.4909 15.23442275  3631
CZ-2C R/B               
1 67475U 26009B   26039.17921032  .00003645  00000+0  24583-3 0  9993
2 67475  97.1752 111.8968 0100412 140.0670 220.7999 15.03124959  3642
TIANQI-37               
1 67476U 26010A   26039.13618113  .00000177  00000+0  16384-3 0  9992
2 67476  44.9826 297.2970 0012906  69.5316 290.6906 14.13528365  3305
TIANQI-38               
1 67477U 26010B   26039.13179155  .00000220  00000+0  18509-3 0  9991
2 67477  44.9788 297.2643 0011751  74.9003 285.3135 14.13905698  3303
TIANQI-39               
1 67478U 26010C   26039.13719552  .00000175  00000+0  16373-3 0  9999
2 67478  44.9839 297.3051 0016488  81.5863 278.6843 14.13055069  3304
TIANQI-40               
1 67479U 26010D   26039.13217357  .00000214  00000+0  18239-3 0  9993
2 67479  44.9833 297.2738 0012349  82.6510 277.5732 14.13803903  3306
SZ-20 MODULE            
1 67481U 25082C   26039.11576663  .00025681  00000+0  28293-3 0  9996
2 67481  41.4797  27.6135 0006612 129.4866 230.6559 15.62499841272993
2025-313BE              
1 67482U 25313BE  26036.72310125  .00103503  00000+0  40965-2 0  9996
2 67482  97.4069 113.6274 0008903 100.3384 259.8858 15.24973835  3091
ION SCV-021             
1 67483U 25276DT  26034.18647169 -.00137880  00000+0 -12184-1 0  9992
2 67483  97.5347 109.4970 0011364 207.9438 152.1175 14.97059561  2554
STARLINK-36551          
1 67493U 26012A   26039.16668981 -.01925454  00000+0 -23002-1 0  9994
2 67493  42.9989 122.8401 0001196 276.8770 206.9981 15.63383658  4326
STARLINK-36396          
1 67494U 26012B   26039.16668981  .00129550  00000+0  21839-2 0  9992
2 67494  42.9986 123.4818 0001930 308.8464 275.9234 15.50499248  4321
STARLINK-36550          
1 67495U 26012C   26039.16668981 -.02274115  00000+0 -34086-1 0  9992
2 67495  42.9997 123.0176 0001683 273.1914 139.0471 15.57556080  4324
STARLINK-36534          
1 67496U 26012D   26039.16668981 -.01917353  00000+0 -23709-1 0  9990
2 67496  42.9992 122.8367 0001217 279.9029 204.8429 15.62500373  4260
STARLINK-36555          
1 67497U 26012E   26039.16668981 -.01918529  00000+0 -23807-1 0  9996
2 67497  42.9991 122.8520 0001352 281.1191 197.5786 15.62412353  4327
STARLINK-36081          
1 67498U 26012F   26039.16668981 -.02273933  00000+0 -34775-1 0  9997
2 67498  42.9992 123.0067 0001558 273.1372 143.2252 15.57026639  4269
STARLINK-36558          
1 67499U 26012G   26039.16668981 -.02290369  00000+0 -35078-1 0  9997
2 67499  42.9997 123.0000 0001646 276.8688 142.0911 15.57013010  4325
STARLINK-36557          
1 67500U 26012H   26039.16668981 -.01911393  00000+0 -20717-1 0  9990
2 67500  42.9993 122.6771 0001093 270.3858 278.3291 15.65780833  4325
STARLINK-36433          
1 67501U 26012J   26039.16668981 -.01907659  00000+0 -20371-1 0  9997
2 67501  42.9993 122.6540 0001097 270.8567 287.0690 15.66141223  4321
STARLINK-36554          
1 67502U 26012K   26039.16668981 -.01892677  00000+0 -24404-1 0  9992
2 67502  42.9993 122.8286 0001272 278.1357 209.2415 15.61392031  4268
STARLINK-36552          
1 67503U 26012L   26039.16668981 -.01908585  00000+0 -19549-1 0  9993
2 67503  42.9993 122.5980 0001107 267.7719 312.4600 15.67160368  4322
STARLINK-36512          
1 67504U 26012M   26039.16668981 -.01906887  00000+0 -21192-1 0  9994
2 67504  42.9991 122.6526 0001110 270.7198 287.4908 15.65155755  4321
STARLINK-36545          
1 67505U 26012N   26039.16668981 -.01908077  00000+0 -20728-1 0  9992
2 67505  42.9995 122.6248 0001073 266.9503 302.3678 15.65719845  4329
STARLINK-36553          
1 67506U 26012P   26039.16668981 -.01910212  00000+0 -19640-1 0  9998
2 67506  42.9992 122.5686 0001190 262.9772 328.8231 15.67069935  4324
STARLINK-36521          
1 67507U 26012Q   26039.16668981 -.01908889  00000+0 -19663-1 0  9991
2 67507  42.9990 122.5564 0001239 264.6614 331.9743 15.67022788  4324
STARLINK-36526          
1 67508U 26012R   26039.16668981 -.01904591  00000+0 -19628-1 0  9999
2 67508  42.9992 122.5426 0001239 261.9671 340.1300 15.67002969  4327
STARLINK-36541          
1 67509U 26012S   26039.16668981  .00106938  00000+0  18093-2 0  9992
2 67509  42.9995 123.3359 0000660 276.8766   5.1891 15.50494778  4263
STARLINK-36549          
1 67510U 26012T   26039.16668981 -.01907296  00000+0 -20922-1 0  9996
2 67510  42.9991 122.3664 0001418 265.0778  45.4844 15.65474995  4264
STARLINK-36540          
1 67511U 26012U   26039.16668981 -.00042831  00000+0 -72813-3 0  9999
2 67511  42.9997 123.3133 0001747 282.1279   9.2825 15.50582616  4322
STARLINK-36538          
1 67512U 26012V   26039.16668981 -.01906859  00000+0 -23352-1 0  9992
2 67512  42.9989 122.6663 0001135 271.9377 280.0247 15.62727920  4329
STARLINK-36531          
1 67513U 26012W   26039.16668981 -.01908071  00000+0 -22565-1 0  9996
2 67513  42.9992 122.6205 0001150 265.8335 304.8275 15.63608487  4265
STARLINK-36530          
1 67514U 26012X   26039.16668981 -.01908107  00000+0 -23434-1 0  9993
2 67514  42.9990 122.6433 0001145 267.3154 293.7240 15.62657077  4263
STARLINK-36543          
1 67515U 26012Y   26039.16668981 -.01863812  00000+0 -23762-1 0  9991
2 67515  42.9991 122.6725 0001068 273.5444 275.7604 15.61631742  4268
STARLINK-36537          
1 67516U 26012Z   26039.16668981 -.01900741  00000+0 -22392-1 0  9993
2 67516  42.9993 122.5555 0001183 268.3316 327.7348 15.63692225  4267
STARLINK-36544          
1 67517U 26012AA  26039.16668981 -.01902780  00000+0 -21618-1 0  9999
2 67517  42.9991 122.5384 0001261 267.6292 335.4200 15.64599153  4325
STARLINK-36412          
1 67518U 26012AB  26039.16668981 -.01899467  00000+0 -22264-1 0  9995
2 67518  42.9993 122.5083 0001217 262.2952 352.6158 15.63816183  4269
STARLINK-36415          
1 67519U 26012AC  26039.16668981 -.01896886  00000+0 -22055-1 0  9996
2 67519  42.9990 122.4835 0001247 262.4760   1.9642 15.64013254  4488
STARLINK-36547          
1 67520U 26012AD  26039.16668981 -.01896925  00000+0 -22392-1 0  9996
2 67520  42.9991 122.5262 0001216 263.3735 344.0774 15.63634907  4260
